     2              NAVIGATION DATA                         RINEX VERSION / TYPE
CCRINEXN V1.6.0 UX  CDDIS               14-DEC-24 00:31     PGM / RUN BY / DATE 
IGS BROADCAST EPHEMERIS FILE                                COMMENT             
    0.2328D-07  0.0000D+00 -0.1192D-06  0.1192D-06          ION ALPHA           
    0.1434D+06 -0.1966D+06  0.0000D+00  0.1966D+06          ION BETA            
    0.931322574616D-09 0.000000000000D+00   589824     2344 DELTA-UTC: A0,A1,T,W
    18                                                      LEAP SECONDS        
                                                            END OF HEADER       
25 24 12 13 20  0  0.0 0.498132314533D-03-0.454747350886D-12 0.000000000000D+00
    0.560000000000D+02 0.798750000000D+02 0.441196949052D-08 0.276784118152D+01
    0.391900539398D-05 0.122128902003D-01 0.119283795357D-04 0.515370507622D+04
    0.504000000000D+06 0.186264514923D-07 0.268061141704D+01-0.225380063057D-06
    0.949431895078D+00 0.139656250000D+03 0.110324872100D+01-0.759603069088D-08
   -0.560380484954D-09 0.100000000000D+01 0.234400000000D+04 0.000000000000D+00
    0.200000000000D+01 0.000000000000D+00 0.558793544769D-08 0.560000000000D+02
    0.500988000000D+06 0.400000000000D+01 0.000000000000D+00 0.000000000000D+00
26 24 12 13 20  0  0.0-0.769412145019D-05-0.139834810398D-10 0.000000000000D+00
    0.750000000000D+02 0.535625000000D+02 0.510378402166D-08 0.199387890184D+01
    0.280514359474D-05 0.971359747928D-02 0.122394412756D-04 0.515374949074D+04
    0.504000000000D+06-0.298023223877D-06 0.261442487624D+01-0.167638063431D-07
    0.930134832352D+00 0.128500000000D+03 0.594549279375D+00-0.807783647431D-08
   -0.606096674931D-09 0.100000000000D+01 0.234400000000D+04 0.000000000000D+00
    0.280000000000D+01 0.000000000000D+00 0.651925802231D-08 0.750000000000D+02
    0.496818000000D+06 0.400000000000D+01 0.000000000000D+00 0.000000000000D+00
27 24 12 13 20  0  0.0-0.342065468430D-04 0.341060513165D-12 0.000000000000D+00
    0.380000000000D+02 0.155687500000D+03 0.464805075283D-08 0.241806756291D+00
    0.829249620438D-05 0.129880228778D-01 0.432133674622D-05 0.515369188118D+04
    0.504000000000D+06-0.484287738800D-07-0.254578970316D+01 0.137835741043D-06
    0.959444046433D+00 0.292062500000D+03 0.803647860165D+00-0.850499712441D-08
    0.118576367753D-09 0.100000000000D+01 0.234400000000D+04 0.000000000000D+00
    0.200000000000D+01 0.000000000000D+00 0.186264514923D-08 0.380000000000D+02
    0.496818000000D+06 0.400000000000D+01 0.000000000000D+00 0.000000000000D+00
28 24 12 13 20  0  0.0-0.507222022861D-03-0.108002495835D-10 0.000000000000D+00
    0.183000000000D+03-0.943750000000D+01 0.503878131404D-08 0.245971498710D+01
   -0.534579157829D-06 0.462518539280D-03 0.580400228500D-05 0.515376381493D+04
    0.504000000000D+06 0.745058059692D-08 0.162234403300D+01-0.167638063431D-07
    0.960880111188D+00 0.270500000000D+03 0.141954333649D+01-0.805962142987D-08
   -0.245010205658D-09 0.100000000000D+01 0.234400000000D+04 0.000000000000D+00
    0.200000000000D+01 0.000000000000D+00-0.931322574616D-08 0.439000000000D+03
    0.496821000000D+06 0.400000000000D+01 0.000000000000D+00 0.000000000000D+00
29 24 12 13 20  0  0.0-0.556201674044D-03 0.318323145621D-11 0.000000000000D+00
    0.940000000000D+02 0.144343750000D+03 0.436196740774D-08 0.842690172514D-01
    0.736117362976D-05 0.288586749230D-02 0.311248004436D-05 0.515374025726D+04
    0.504000000000D+06 0.931322574616D-08-0.246062564630D+01-0.651925802231D-07
    0.968628431925D+00 0.323656250000D+03 0.265808827031D+01-0.827355891265D-08
    0.187864968187D-09 0.100000000000D+01 0.234400000000D+04 0.000000000000D+00
    0.200000000000D+01 0.000000000000D+00-0.977888703346D-08 0.940000000000D+02
    0.496822000000D+06 0.400000000000D+01 0.000000000000D+00 0.000000000000D+00
30 24 12 13 20  0  0.0-0.261993613094D-03 0.807176547823D-11 0.000000000000D+00
    0.700000000000D+02-0.177187500000D+02 0.556951770705D-08-0.277062711444D+01
   -0.108033418655D-05 0.719929987099D-02 0.590085983276D-05 0.515375455093D+04
    0.504000000000D+06 0.167638063431D-07 0.165075633201D+01-0.162050127983D-06
    0.934994422385D+00 0.255531250000D+03-0.245843746463D+01-0.833177562333D-08
   -0.233581158164D-09 0.100000000000D+01 0.234400000000D+04 0.000000000000D+00
    0.200000000000D+01 0.000000000000D+00 0.372529029846D-08 0.700000000000D+02
    0.496818000000D+06 0.400000000000D+01 0.000000000000D+00 0.000000000000D+00
31 24 12 13 20  0  0.0-0.220035668462D-03 0.682121026330D-12 0.000000000000D+00
    0.490000000000D+02-0.163750000000D+02 0.514199989922D-08 0.262053064133D+01
   -0.949949026108D-06 0.107178615872D-01 0.591017305851D-05 0.515358908081D+04
    0.504000000000D+06-0.298023223877D-07 0.167550556900D+01-0.184401869774D-06
    0.953746147287D+00 0.262812500000D+03 0.784180661529D+00-0.797426073140D-08
   -0.300369654459D-09 0.100000000000D+01 0.234400000000D+04 0.000000000000D+00
    0.200000000000D+01 0.000000000000D+00-0.135041773319D-07 0.490000000000D+02
    0.496818000000D+06 0.400000000000D+01 0.000000000000D+00 0.000000000000D+00
32 24 12 13 20  0  0.0-0.559530686587D-03 0.602540239925D-11 0.000000000000D+00
    0.220000000000D+02 0.109375000000D+01 0.454018911710D-08 0.845998533955D+00
    0.558793544769D-08 0.814303546213D-02 0.892765820026D-05 0.515375831795D+04
    0.504000000000D+06-0.819563865662D-07 0.595650344668D+00 0.614672899246D-07
    0.963603750124D+00 0.208125000000D+03-0.212175312852D+01-0.795818863336D-08
    0.673599486694D-09 0.100000000000D+01 0.234400000000D+04 0.000000000000D+00
    0.200000000000D+01 0.000000000000D+00 0.931322574616D-09 0.220000000000D+02
    0.496818000000D+06 0.400000000000D+01 0.000000000000D+00 0.000000000000D+00
 3 24 12 13 21 59 44.0 0.623825937509D-03 0.864019966684D-11 0.000000000000D+00
    0.740000000000D+02-0.148437500000D+03 0.343692887617D-08-0.211655558100D+01
   -0.759027898312D-05 0.566231773701D-02 0.104401260614D-04 0.515361898994D+04
    0.511184000000D+06 0.838190317154D-07-0.434761323634D+00-0.633299350738D-07
    0.987665964206D+00 0.193687500000D+03 0.115036119899D+01-0.736030658631D-08
    0.153577825704D-10 0.100000000000D+01 0.234400000000D+04 0.000000000000D+00
    0.200000000000D+01 0.000000000000D+00 0.139698386192D-08 0.740000000000D+02
    0.504018000000D+06 0.400000000000D+01 0.000000000000D+00 0.000000000000D+00
21 24 12 13 21 59 44.0 0.958107411861D-04 0.272848410532D-11 0.000000000000D+00
    0.600000000000D+01-0.365000000000D+02 0.479484258158D-08 0.103511315639D+01
   -0.228546559811D-05 0.257326163119D-01-0.216066837311D-05 0.515363133049D+04
    0.511184000000D+06 0.530853867531D-06-0.158196584677D+01 0.163912773132D-06
    0.960579667313D+00 0.411375000000D+03-0.479666221669D+00-0.866500378933D-08
   -0.359300680601D-09 0.100000000000D+01 0.234400000000D+04 0.000000000000D+00
    0.200000000000D+01 0.000000000000D+00-0.102445483208D-07 0.600000000000D+01
    0.508308000000D+06 0.400000000000D+01 0.000000000000D+00 0.000000000000D+00
24 24 12 13 21 59 44.0-0.473690219224D-03 0.306954461848D-11 0.000000000000D+00
    0.800000000000D+01-0.821875000000D+01 0.573416742252D-08-0.674471435974D+00
   -0.132247805595D-06 0.163799382281D-01 0.528618693352D-05 0.515367860985D+04
    0.511184000000D+06-0.521540641785D-07 0.155247114346D+01 0.281259417534D-06
    0.933589367105D+00 0.266437500000D+03 0.103866996082D+01-0.873143512789D-08
   -0.144648882349D-09 0.100000000000D+01 0.234400000000D+04 0.000000000000D+00
    0.200000000000D+01 0.000000000000D+00 0.232830643654D-08 0.800000000000D+01
    0.504018000000D+06 0.400000000000D+01 0.000000000000D+00 0.000000000000D+00
25 24 12 13 21 59 44.0 0.498129520565D-03-0.454747350886D-12 0.000000000000D+00
    0.200000000000D+01 0.660312500000D+02 0.460019161645D-08-0.246757973710D+01
    0.326521694660D-05 0.122166274814D-01 0.108033418655D-04 0.515369802475D+04
    0.511184000000D+06 0.234693288803D-06 0.268055539459D+01-0.428408384323D-07
    0.949428373834D+00 0.164062500000D+03 0.110331476883D+01-0.767317676147D-08
   -0.350728894981D-09 0.100000000000D+01 0.234400000000D+04 0.000000000000D+00
    0.200000000000D+01 0.000000000000D+00 0.558793544769D-08 0.200000000000D+01
    0.509808000000D+06 0.400000000000D+01 0.000000000000D+00 0.000000000000D+00
31 24 12 13 21 59 44.0-0.220028683543D-03 0.682121026330D-12 0.000000000000D+00
    0.100000000000D+02-0.109062500000D+02 0.510664128354D-08-0.261475568737D+01
   -0.841915607452D-06 0.107171090785D-01 0.580586493015D-05 0.515359046936D+04
    0.511184000000D+06 0.128522515297D-06 0.167544780714D+01-0.178813934326D-06
    0.953744004112D+00 0.263468750000D+03 0.784184608482D+00-0.802390565645D-08
   -0.222152110670D-09 0.100000000000D+01 0.234400000000D+04 0.000000000000D+00
    0.200000000000D+01 0.000000000000D+00-0.135041773319D-07 0.100000000000D+02
    0.504198000000D+06 0.400000000000D+01 0.000000000000D+00 0.000000000000D+00
 2 24 12 13 22  0  0.0-0.292684417218D-03 0.886757334229D-11 0.000000000000D+00
    0.330000000000D+02-0.487500000000D+02 0.463090718159D-08 0.134805209967D+01
   -0.310689210892D-05 0.165111037204D-01-0.182166695595D-05 0.515368349647D+04
    0.511200000000D+06 0.298023223877D-06-0.157357645924D+01-0.162050127983D-06
    0.966336349433D+00 0.412562500000D+03-0.108023816947D+01-0.850892585949D-08
   -0.296798077117D-09 0.100000000000D+01 0.234400000000D+04 0.000000000000D+00
    0.200000000000D+01 0.000000000000D+00-0.176951289177D-07 0.330000000000D+02
    0.509562000000D+06 0.400000000000D+01 0.000000000000D+00 0.000000000000D+00
